start=new Date('2022-03-31T00:00:00.000Z').valueOf();
sats=[{"BSTAR":"0.00566740000000","DECAY_DATE":null,"FILE":"3380787","PERIAPSIS":"397.482","MEAN_MOTION_DOT":"0.00427349","SEMIMAJOR_AXIS":"6776.615","OBJECT_ID":"2020-088Z","PERIOD":"92.529","LAUNCH_DATE":"2020-11-25","TLE_LINE1":"1 47145U 20088Z   22089.71791101  .00427349  00000-0  56674-2 0  9996","REV_AT_EPOCH":"7529","SITE":"AFETR","ELEMENT_SET_NO":"999","NORAD_CAT_ID":"47145","REF_FRAME":"TEME","INCLINATION":"53.0519","EPOCH":"2022-03-30T17:13:47.511264","MEAN_MOTION_DDOT":"0.0000000000000","GP_ID":"200097094","APOAPSIS":"399.479","RA_OF_ASC_NODE":"250.9401","OBJECT_TYPE":"PAYLOAD","MEAN_ELEMENT_THEORY":"SGP4","OBJECT_NAME":"STARLINK-1858","TLE_LINE2":"2 47145  53.0519 250.9401 0001473  38.0748 322.0366 15.56264844 75292","EPHEMERIS_TYPE":"0","RCS_SIZE":"LARGE","CENTER_NAME":"EARTH","MEAN_MOTION":"15.56264844","CLASSIFICATION_TYPE":"U","ARG_OF_PERICENTER":"38.0748","ECCENTRICITY":"0.00014730","TIME_SYSTEM":"UTC","COUNTRY_CODE":"US","MEAN_ANOMALY":"322.0366"},{"TLE_LINE1":"1 47146U 20088AA  22089.77323500  .01573760  12539-2  46018-2 0  9990","SITE":"AFETR","REV_AT_EPOCH":"7565","ELEMENT_SET_NO":"999","PERIOD":"90.429","LAUNCH_DATE":"2020-11-25","MEAN_MOTION_DOT":"0.01573760","OBJECT_ID":"2020-088AA","SEMIMAJOR_AXIS":"6673.676","BSTAR":"0.00460180000000","DECAY_DATE":null,"PERIAPSIS":"289.896","FILE":"3380573","GP_ID":"200045153","REF_FRAME":"TEME","INCLINATION":"53.0454","EPOCH":"2022-03-30T18:33:27.504000","MEAN_MOTION_DDOT":"0.0012539000000","NORAD_CAT_ID":"47146","EPHEMERIS_TYPE":"0","RCS_SIZE":"LARGE","MEAN_ELEMENT_THEORY":"SGP4","OBJECT_NAME":"STARLINK-1859","TLE_LINE2":"2 47146  53.0454 242.2945 0008459 284.9027  75.1062 15.92410772 75653","APOAPSIS":"301.186","RA_OF_ASC_NODE":"242.2945","OBJECT_TYPE":"PAYLOAD","COUNTRY_CODE":"US","MEAN_ANOMALY":"75.1062","MEAN_MOTION":"15.92410772","ARG_OF_PERICENTER":"284.9027","CLASSIFICATION_TYPE":"U","ECCENTRICITY":"0.00084590","TIME_SYSTEM":"UTC","CENTER_NAME":"EARTH"},{"LAUNCH_DATE":"2020-11-25","PERIOD":"95.592","SITE":"AFETR","REV_AT_EPOCH":"7482","ELEMENT_SET_NO":"999","TLE_LINE1":"1 47147U 20088AB  22089.83192019  .00001233  00000-0  10169-3 0  9994","DECAY_DATE":null,"PERIAPSIS":"546.108","FILE":"3380787","BSTAR":"0.00010169000000","SEMIMAJOR_AXIS":"6925.347","OBJECT_ID":"2020-088AB","MEAN_MOTION_DOT":"0.00001233","GP_ID":"200096593","NORAD_CAT_ID":"47147","MEAN_MOTION_DDOT":"0.0000000000000","EPOCH":"2022-03-30T19:57:57.904416","REF_FRAME":"TEME","INCLINATION":"53.0534","OBJECT_NAME":"STARLINK-1860","TLE_LINE2":"2 47147  53.0534 285.4029 0001594  54.7373 305.3765 15.06400663 74824","MEAN_ELEMENT_THEORY":"SGP4","RCS_SIZE":"LARGE","EPHEMERIS_TYPE":"0","RA_OF_ASC_NODE":"285.4029","APOAPSIS":"548.315","OBJECT_TYPE":"PAYLOAD","COUNTRY_CODE":"US","MEAN_ANOMALY":"305.3765","CENTER_NAME":"EARTH","ARG_OF_PERICENTER":"54.7373","CLASSIFICATION_TYPE":"U","ECCENTRICITY":"0.00015940","TIME_SYSTEM":"UTC","MEAN_MOTION":"15.06400663"},{"MEAN_MOTION":"15.06401684","CLASSIFICATION_TYPE":"U","ARG_OF_PERICENTER":"53.6124","ECCENTRICITY":"0.00015250","TIME_SYSTEM":"UTC","CENTER_NAME":"EARTH","COUNTRY_CODE":"US","MEAN_ANOMALY":"306.5005","APOAPSIS":"548.265","RA_OF_ASC_NODE":"275.5159","OBJECT_TYPE":"PAYLOAD","EPHEMERIS_TYPE":"0","RCS_SIZE":"LARGE","MEAN_ELEMENT_THEORY":"SGP4","OBJECT_NAME":"STARLINK-1861","TLE_LINE2":"2 47148  53.0548 275.5159 0001525  53.6124 306.5005 15.06401684 75207","REF_FRAME":"TEME","INCLINATION":"53.0548","MEAN_MOTION_DDOT":"0.0000000000000","EPOCH":"2022-03-30T19:22:08.440032","NORAD_CAT_ID":"47148","GP_ID":"200046382","MEAN_MOTION_DOT":"-0.00001044","SEMIMAJOR_AXIS":"6925.343","OBJECT_ID":"2020-088AC","BSTAR":"-0.00005119600000","DECAY_DATE":null,"PERIAPSIS":"546.152","FILE":"3380607","TLE_LINE1":"1 47148U 20088AC  22089.80704213 -.00001044  00000-0 -51196-4 0  9995","SITE":"AFETR","REV_AT_EPOCH":"7520","ELEMENT_SET_NO":"999","PERIOD":"95.592","LAUNCH_DATE":"2020-11-25"},{"MEAN_ELEMENT_THEORY":"SGP4","OBJECT_NAME":"STARLINK-1862","TLE_LINE2":"2 47149  53.0547 285.3719 0001586  90.0656 270.0515 15.06399237 75076","EPHEMERIS_TYPE":"0","RCS_SIZE":"LARGE","APOAPSIS":"548.314","RA_OF_ASC_NODE":"285.3719","OBJECT_TYPE":"PAYLOAD","COUNTRY_CODE":"US","MEAN_ANOMALY":"270.0515","CENTER_NAME":"EARTH","MEAN_MOTION":"15.06399237","ARG_OF_PERICENTER":"90.0656","CLASSIFICATION_TYPE":"U","TIME_SYSTEM":"UTC","ECCENTRICITY":"0.00015860","PERIOD":"95.592","LAUNCH_DATE":"2020-11-25","TLE_LINE1":"1 47149U 20088AD  22089.83560894  .00000558  00000-0  56337-4 0  9993","REV_AT_EPOCH":"7507","SITE":"AFETR","ELEMENT_SET_NO":"999","BSTAR":"0.00005633700000","DECAY_DATE":null,"FILE":"3380621","PERIAPSIS":"546.118","MEAN_MOTION_DOT":"0.00000558","OBJECT_ID":"2020-088AD","SEMIMAJOR_AXIS":"6925.351","GP_ID":"200046392","NORAD_CAT_ID":"47149","REF_FRAME":"TEME","INCLINATION":"53.0547","MEAN_MOTION_DDOT":"0.0000000000000","EPOCH":"2022-03-30T20:03:16.612416"},{"BSTAR":"-0.00001630400000","FILE":"3380611","PERIAPSIS":"546.235","DECAY_DATE":null,"MEAN_MOTION_DOT":"-0.00000524","SEMIMAJOR_AXIS":"6925.326","OBJECT_ID":"2020-088AE","PERIOD":"95.592","LAUNCH_DATE":"2020-11-25","TLE_LINE1":"1 47150U 20088AE  22089.82915559 -.00000524  00000-0 -16304-4 0  9991","ELEMENT_SET_NO":"999","SITE":"AFETR","REV_AT_EPOCH":"7521","NORAD_CAT_ID":"47150","INCLINATION":"53.0543","REF_FRAME":"TEME","MEAN_MOTION_DDOT":"0.0000000000000","EPOCH":"2022-03-30T19:53:59.042976","GP_ID":"200046441","OBJECT_TYPE":"PAYLOAD","RA_OF_ASC_NODE":"275.3991","APOAPSIS":"548.147","MEAN_ELEMENT_THEORY":"SGP4","TLE_LINE2":"2 47150  53.0543 275.3991 0001380  70.5735 289.5403 15.06407333 75212","OBJECT_NAME":"STARLINK-1863","EPHEMERIS_TYPE":"0","RCS_SIZE":"LARGE","CENTER_NAME":"EARTH","MEAN_MOTION":"15.06407333","ECCENTRICITY":"0.00013800","TIME_SYSTEM":"UTC","ARG_OF_PERICENTER":"70.5735","CLASSIFICATION_TYPE":"U","MEAN_ANOMALY":"289.5403","COUNTRY_CODE":"US"},{"REV_AT_EPOCH":"7506","SITE":"AFETR","ELEMENT_SET_NO":"999","TLE_LINE1":"1 47151U 20088AF  22089.82824346  .00014393  00000-0  98314-3 0  9992","LAUNCH_DATE":"2020-11-25","PERIOD":"95.592","OBJECT_ID":"2020-088AF","SEMIMAJOR_AXIS":"6925.345","MEAN_MOTION_DOT":"0.00014393","DECAY_DATE":null,"FILE":"3380611","PERIAPSIS":"546.029","BSTAR":"0.00098314000000","GP_ID":"200046447","MEAN_MOTION_DDOT":"0.0000000000000","EPOCH":"2022-03-30T19:52:40.234944","REF_FRAME":"TEME","INCLINATION":"53.0538","NORAD_CAT_ID":"47151","RCS_SIZE":"LARGE","EPHEMERIS_TYPE":"0","OBJECT_NAME":"STARLINK-1864","TLE_LINE2":"2 47151  53.0538 285.4160 0001705  64.7454 295.3712 15.06401261 75066","MEAN_ELEMENT_THEORY":"SGP4","RA_OF_ASC_NODE":"285.4160","APOAPSIS":"548.390","OBJECT_TYPE":"PAYLOAD","COUNTRY_CODE":"US","MEAN_ANOMALY":"295.3712","CLASSIFICATION_TYPE":"U","ARG_OF_PERICENTER":"64.7454","TIME_SYSTEM":"UTC","ECCENTRICITY":"0.00017050","MEAN_MOTION":"15.06401261","CENTER_NAME":"EARTH"},{"CLASSIFICATION_TYPE":"U","ARG_OF_PERICENTER":"65.2084","TIME_SYSTEM":"UTC","ECCENTRICITY":"0.00012950","MEAN_MOTION":"15.06396773","CENTER_NAME":"EARTH","COUNTRY_CODE":"US","MEAN_ANOMALY":"294.9039","RA_OF_ASC_NODE":"285.4843","APOAPSIS":"548.120","OBJECT_TYPE":"PAYLOAD","RCS_SIZE":"LARGE","EPHEMERIS_TYPE":"0","OBJECT_NAME":"STARLINK-1866","TLE_LINE2":"2 47152  53.0524 285.4843 0001295  65.2084 294.9039 15.06396773 75067","MEAN_ELEMENT_THEORY":"SGP4","MEAN_MOTION_DDOT":"0.0000000000000","EPOCH":"2022-03-30T19:31:25.866048","REF_FRAME":"TEME","INCLINATION":"53.0524","NORAD_CAT_ID":"47152","GP_ID":"200045962","SEMIMAJOR_AXIS":"6925.358","OBJECT_ID":"2020-088AG","MEAN_MOTION_DOT":"0.00001789","DECAY_DATE":null,"FILE":"3380612","PERIAPSIS":"546.327","BSTAR":"0.00013898000000","SITE":"AFETR","REV_AT_EPOCH":"7506","ELEMENT_SET_NO":"999","TLE_LINE1":"1 47152U 20088AG  22089.81349382  .00001789  00000-0  13898-3 0  9993","LAUNCH_DATE":"2020-11-25","PERIOD":"95.592"},{"DECAY_DATE":null,"FILE":"3380787","PERIAPSIS":"546.056","BSTAR":"0.00004206800000","OBJECT_ID":"2020-088AH","SEMIMAJOR_AXIS":"6925.350","MEAN_MOTION_DOT":"0.00000345","LAUNCH_DATE":"2020-11-25","PERIOD":"95.592","SITE":"AFETR","REV_AT_EPOCH":"7475","ELEMENT_SET_NO":"999","TLE_LINE1":"1 47153U 20088AH  22089.85447406  .00000345  00000-0  42068-4 0  9993","NORAD_CAT_ID":"47153","EPOCH":"2022-03-30T20:30:26.558784","MEAN_MOTION_DDOT":"0.0000000000000","REF_FRAME":"TEME","INCLINATION":"53.0539","GP_ID":"200097095","APOAPSIS":"548.375","RA_OF_ASC_NODE":"290.2919","OBJECT_TYPE":"PAYLOAD","OBJECT_NAME":"STARLINK-1867","TLE_LINE2":"2 47153  53.0539 290.2919 0001674  65.5849 294.5314 15.06399461 74759","MEAN_ELEMENT_THEORY":"SGP4","RCS_SIZE":"LARGE","EPHEMERIS_TYPE":"0","CENTER_NAME":"EARTH","ARG_OF_PERICENTER":"65.5849","CLASSIFICATION_TYPE":"U","TIME_SYSTEM":"UTC","ECCENTRICITY":"0.00016740","MEAN_MOTION":"15.06399461","COUNTRY_CODE":"US","MEAN_ANOMALY":"294.5314"},{"MEAN_MOTION_DOT":"0.00001057","SEMIMAJOR_AXIS":"6925.356","OBJECT_ID":"2020-088AJ","BSTAR":"0.00008985000000","DECAY_DATE":null,"FILE":"3380787","PERIAPSIS":"546.142","TLE_LINE1":"1 47154U 20088AJ  22089.78492393  .00001057  00000-0  89850-4 0  9992","SITE":"AFETR","REV_AT_EPOCH":"7495","ELEMENT_SET_NO":"999","PERIOD":"95.592","LAUNCH_DATE":"2020-11-25","REF_FRAME":"TEME","INCLINATION":"53.0526","MEAN_MOTION_DDOT":"0.0000000000000","EPOCH":"2022-03-30T18:50:17.427552","NORAD_CAT_ID":"47154","GP_ID":"200097846","RA_OF_ASC_NODE":"275.5968","APOAPSIS":"548.301","OBJECT_TYPE":"PAYLOAD","EPHEMERIS_TYPE":"0","RCS_SIZE":"LARGE","MEAN_ELEMENT_THEORY":"SGP4","OBJECT_NAME":"STARLINK-1868","TLE_LINE2":"2 47154  53.0526 275.5968 0001559  71.6576 288.4582 15.06397423 74950","MEAN_MOTION":"15.06397423","ARG_OF_PERICENTER":"71.6576","CLASSIFICATION_TYPE":"U","TIME_SYSTEM":"UTC","ECCENTRICITY":"0.00015590","CENTER_NAME":"EARTH","COUNTRY_CODE":"US","MEAN_ANOMALY":"288.4582"}];
